{
  "type": "FeatureCollection",
  "features": [
    {
      "type": "Feature",
      "properties": {
        "norad_id": 35290,
        "name": "COSMOS 2251 DEB",
        "group": "cosmos-2251-debris",
        "lat": -36.709289989609466,
        "lon": -97.67313254912091,
        "alt_km": 632.8998158186669,
        "timestamp": "2025-12-07T09:35:10.185185+00:00",
        "meta_object_name": "COSMOS 2251 DEB",
        "meta_object_id": "1993-036AJU",
        "meta_epoch": "2025-12-06T16:22:51.987360",
        "meta_mean_motion": 14.8010207,
        "meta_eccentricity": 0.00029414,
        "meta_inclination": 74.0059,
        "meta_ra_of_asc_node": 71.3921,
        "meta_arg_of_pericenter": 204.4724,
        "meta_mean_anomaly": 155.6313,
        "meta_ephemeris_type": 0,
        "meta_classification_type": "U",
        "meta_norad_cat_id": 35290,
        "meta_element_set_no": 999,
        "meta_rev_at_epoch": 87868,
        "meta_bstar": 0.0036735181,
        "meta_mean_motion_dot": 0.00027947,
        "meta_mean_motion_ddot": 0,
        "tle_line1": "1 35290U 93036AJU 25340.68254615  .00027947  00000+0  36735-2 0  9995",
        "tle_line2": "2 35290  74.0059  71.3921 0002941 204.4724 155.6313 14.80102070878682"
      },
      "geometry": {
        "type": "Point",
        "coordinates": [
          -97.67313254912091,
          -36.709289989609466
        ]
      }
    },
    {
      "type": "Feature",
      "properties": {
        "norad_id": 35432,
        "name": "COSMOS 2251 DEB",
        "group": "cosmos-2251-debris",
        "lat": 5.5797463622234105,
        "lon": 28.39774996497918,
        "alt_km": 495.9856096380645,
        "timestamp": "2025-12-07T09:35:10.185195+00:00",
        "meta_object_name": "COSMOS 2251 DEB",
        "meta_object_id": "1993-036AKA",
        "meta_epoch": "2025-12-06T13:02:26.977920",
        "meta_mean_motion": 15.20957014,
        "meta_eccentricity": 0.00121909,
        "meta_inclination": 74.0212,
        "meta_ra_of_asc_node": 28.5919,
        "meta_arg_of_pericenter": 348.2705,
        "meta_mean_anomaly": 11.8207,
        "meta_ephemeris_type": 0,
        "meta_classification_type": "U",
        "meta_norad_cat_id": 35432,
        "meta_element_set_no": 999,
        "meta_rev_at_epoch": 87409,
        "meta_bstar": 0.0090355975,
        "meta_mean_motion_dot": 0.00206244,
        "meta_mean_motion_ddot": 0,
        "tle_line1": "1 35432U 93036AKA 25340.54336780  .00206244  00000+0  90356-2 0  9990",
        "tle_line2": "2 35432  74.0212  28.5919 0012190 348.2705  11.8207 15.20957014874092"
      },
      "geometry": {
        "type": "Point",
        "coordinates": [
          28.39774996497918,
          5.5797463622234105
        ]
      }
    },
    {
      "type": "Feature",
      "properties": {
        "norad_id": 35433,
        "name": "COSMOS 2251 DEB",
        "group": "cosmos-2251-debris",
        "lat": 57.22777213298428,
        "lon": 14.637390257618648,
        "alt_km": 752.5729836846231,
        "timestamp": "2025-12-07T09:35:10.185205+00:00",
        "meta_object_name": "COSMOS 2251 DEB",
        "meta_object_id": "1993-036AKB",
        "meta_epoch": "2025-12-05T19:38:16.327392",
        "meta_mean_motion": 14.34730306,
        "meta_eccentricity": 0.00254596,
        "meta_inclination": 74.0335,
        "meta_ra_of_asc_node": 351.128,
        "meta_arg_of_pericenter": 48.4343,
        "meta_mean_anomaly": 128.9694,
        "meta_ephemeris_type": 0,
        "meta_classification_type": "U",
        "meta_norad_cat_id": 35433,
        "meta_element_set_no": 999,
        "meta_rev_at_epoch": 86481,
        "meta_bstar": 0.00044039966,
        "meta_mean_motion_dot": 1.226e-05,
        "meta_mean_motion_ddot": 0,
        "tle_line1": "1 35433U 93036AKB 25339.81824453  .00001226  00000+0  44040-3 0  9991",
        "tle_line2": "2 35433  74.0335 351.1280 0025459  48.4343 128.9694 14.34730306864810"
      },
      "geometry": {
        "type": "Point",
        "coordinates": [
          14.637390257618648,
          57.22777213298428
        ]
      }
    },
    {
      "type": "Feature",
      "properties": {
        "norad_id": 35434,
        "name": "COSMOS 2251 DEB",
        "group": "cosmos-2251-debris",
        "lat": 29.116961520028777,
        "lon": 34.09219561138577,
        "alt_km": 856.2527402451269,
        "timestamp": "2025-12-07T09:35:10.185215+00:00",
        "meta_object_name": "COSMOS 2251 DEB",
        "meta_object_id": "1993-036AKC",
        "meta_epoch": "2025-12-06T22:46:33.094560",
        "meta_mean_motion": 14.25661537,
        "meta_eccentricity": 0.00875949,
        "meta_inclination": 74.0405,
        "meta_ra_of_asc_node": 224.0762,
        "meta_arg_of_pericenter": 296.0242,
        "meta_mean_anomaly": 63.1904,
        "meta_ephemeris_type": 0,
        "meta_classification_type": "U",
        "meta_norad_cat_id": 35434,
        "meta_element_set_no": 999,
        "meta_rev_at_epoch": 86035,
        "meta_bstar": 0.0011045236,
        "meta_mean_motion_dot": 2.7e-05,
        "meta_mean_motion_ddot": 0,
        "tle_line1": "1 35434U 93036AKC 25340.94899415  .00002700  00000+0  11045-2 0  9994",
        "tle_line2": "2 35434  74.0405 224.0762 0087594 296.0242  63.1904 14.25661537860357"
      },
      "geometry": {
        "type": "Point",
        "coordinates": [
          34.09219561138577,
          29.116961520028777
        ]
      }
    },
    {
      "type": "Feature",
      "properties": {
        "norad_id": 35435,
        "name": "COSMOS 2251 DEB",
        "group": "cosmos-2251-debris",
        "lat": 48.76329696810853,
        "lon": 133.66817792674033,
        "alt_km": 636.0462116615781,
        "timestamp": "2025-12-07T09:35:10.185225+00:00",
        "meta_object_name": "COSMOS 2251 DEB",
        "meta_object_id": "1993-036AKD",
        "meta_epoch": "2025-12-06T15:33:19.570752",
        "meta_mean_motion": 14.78155636,
        "meta_eccentricity": 0.00089158,
        "meta_inclination": 74.011,
        "meta_ra_of_asc_node": 116.0521,
        "meta_arg_of_pericenter": 210.6381,
        "meta_mean_anomaly": 164.7127,
        "meta_ephemeris_type": 0,
        "meta_classification_type": "U",
        "meta_norad_cat_id": 35435,
        "meta_element_set_no": 999,
        "meta_rev_at_epoch": 87449,
        "meta_bstar": 0.0041982547,
        "meta_mean_motion_dot": 0.00030535,
        "meta_mean_motion_ddot": 0,
        "tle_line1": "1 35435U 93036AKD 25340.64814318  .00030535  00000+0  41983-2 0  9992",
        "tle_line2": "2 35435  74.0110 116.0521 0008915 210.6381 164.7127 14.78155636874491"
      },
      "geometry": {
        "type": "Point",
        "coordinates": [
          133.66817792674033,
          48.76329696810853
        ]
      }
    },
    {
      "type": "Feature",
      "properties": {
        "norad_id": 35439,
        "name": "COSMOS 2251 DEB",
        "group": "cosmos-2251-debris",
        "lat": -1.656274497836852,
        "lon": -35.63470370577052,
        "alt_km": 1039.1290941133384,
        "timestamp": "2025-12-07T09:35:10.185235+00:00",
        "meta_object_name": "COSMOS 2251 DEB",
        "meta_object_id": "1993-036AKH",
        "meta_epoch": "2025-12-06T05:59:35.063232",
        "meta_mean_motion": 13.92766526,
        "meta_eccentricity": 0.02419007,
        "meta_inclination": 74.0202,
        "meta_ra_of_asc_node": 145.8594,
        "meta_arg_of_pericenter": 316.5639,
        "meta_mean_anomaly": 224.7042,
        "meta_ephemeris_type": 0,
        "meta_classification_type": "U",
        "meta_norad_cat_id": 35439,
        "meta_element_set_no": 999,
        "meta_rev_at_epoch": 83870,
        "meta_bstar": 0.0024796152,
        "meta_mean_motion_dot": 4.056e-05,
        "meta_mean_motion_ddot": 0,
        "tle_line1": "1 35439U 93036AKH 25340.24971138  .00004056  00000+0  24796-2 0  9998",
        "tle_line2": "2 35439  74.0202 145.8594 0241900 316.5639 224.7042 13.92766526838700"
      },
      "geometry": {
        "type": "Point",
        "coordinates": [
          -35.63470370577052,
          -1.656274497836852
        ]
      }
    },
    {
      "type": "Feature",
      "properties": {
        "norad_id": 35440,
        "name": "COSMOS 2251 DEB",
        "group": "cosmos-2251-debris",
        "lat": -51.27665294068669,
        "lon": 58.921075320791914,
        "alt_km": 699.8985068827042,
        "timestamp": "2025-12-07T09:35:10.185246+00:00",
        "meta_object_name": "COSMOS 2251 DEB",
        "meta_object_id": "1993-036AKJ",
        "meta_epoch": "2025-12-06T22:42:44.249472",
        "meta_mean_motion": 14.68767431,
        "meta_eccentricity": 0.00690638,
        "meta_inclination": 74.015,
        "meta_ra_of_asc_node": 218.8517,
        "meta_arg_of_pericenter": 1.0906,
        "meta_mean_anomaly": 359.0401,
        "meta_ephemeris_type": 0,
        "meta_classification_type": "U",
        "meta_norad_cat_id": 35440,
        "meta_element_set_no": 999,
        "meta_rev_at_epoch": 68680,
        "meta_bstar": 0.00081984037,
        "meta_mean_motion_dot": 4.928e-05,
        "meta_mean_motion_ddot": 0,
        "tle_line1": "1 35440U 93036AKJ 25340.94634548  .00004928  00000+0  81984-3 0  9999",
        "tle_line2": "2 35440  74.0150 218.8517 0069063   1.0906 359.0401 14.68767431686804"
      },
      "geometry": {
        "type": "Point",
        "coordinates": [
          58.921075320791914,
          -51.27665294068669
        ]
      }
    }
  ]
}